{"type": "FeatureCollection", "features": [{"type": "Feature", "properties": {"name": "Alimanguan"}, "geometry": {"type": "Polygon", "coordinates": [[[119.37765, 10.62178], [119.32721, 10.62357], [119.32044, 10.62126], [119.31995, 10.62164], [119.31819, 10.61806], [119.31685, 10.61796], [119.3167, 10.6163], [119.31788, 10.61591], [119.31761, 10.61385], [119.31971, 10.61312], [119.32069, 10.61407], [119.32276, 10.61403], [119.3236, 10.61322], [119.32423, 10.61164], [119.32431, 10.60815], [119.3236, 10.60485], [119.32305, 10.60317], [119.32183, 10.60106], [119.32226, 10.6001], [119.3216, 10.59831], [119.32015, 10.59541], [119.31826, 10.59078], [119.31585, 10.58698], [119.31269, 10.5834], [119.31072, 10.58233], [119.31063, 10.58203], [119.31784, 10.58116], [119.36373, 10.58589], [119.36366, 10.58772], [119.36552, 10.58798], [119.36608, 10.5874], [119.36626, 10.59107], [119.37024, 10.60172], [119.37765, 10.62178]]]}}, {"type": "Feature", "properties": {"name": "Binga"}, "geometry": {"type": "Polygon", "coordinates": [[[119.35006, 10.73772], [119.34434, 10.75906], [119.32511, 10.78554], [119.31755, 10.78898], [119.31727, 10.789], [119.31155, 10.78649], [119.30953, 10.78695], [119.28463, 10.77292], [119.27434, 10.76488], [119.27505, 10.76452], [119.27994, 10.76634], [119.28221, 10.76595], [119.28383, 10.76697], [119.28491, 10.76699], [119.28777, 10.76607], [119.28937, 10.76827], [119.29124, 10.76924], [119.29235, 10.77129], [119.29381, 10.77194], [119.29523, 10.77204], [119.29852, 10.77397], [119.2998, 10.77426], [119.30198, 10.77526], [119.30312, 10.77544], [119.30728, 10.77396], [119.31044, 10.772], [119.31116, 10.77226], [119.3152, 10.76918], [119.31725, 10.76986], [119.31789, 10.7694], [119.32098, 10.76523], [119.32414, 10.76011], [119.3244, 10.75848], [119.32393, 10.75723], [119.32393, 10.75571], [119.32464, 10.75308], [119.32406, 10.7515], [119.3231, 10.75092], [119.32406, 10.75001], [119.32424, 10.74887], [119.32314, 10.74833], [119.3232, 10.74674], [119.32501, 10.74441], [119.32629, 10.74526], [119.3276, 10.74508], [119.32829, 10.74679], [119.32909, 10.74691], [119.33243, 10.74546], [119.33381, 10.74384], [119.33701, 10.74288], [119.33959, 10.74055], [119.34239, 10.73621], [119.34737, 10.73618], [119.35006, 10.73772]]]}}, {"type": "Feature", "properties": {"name": "Caruray"}, "geometry": {"type": "MultiPolygon", "coordinates": [[[[118.94997, 10.33452], [118.94618, 10.33339], [118.94533, 10.33238], [118.94417, 10.33178], [118.94214, 10.33303], [118.94101, 10.33317], [118.93808, 10.33207], [118.93964, 10.33089], [118.94089, 10.3306], [118.942, 10.33096], [118.94379, 10.33078], [118.94511, 10.32984], [118.94666, 10.33021], [118.9478, 10.33128], [118.94898, 10.33099], [118.94918, 10.33199], [118.95056, 10.33386], [118.94997, 10.33452]]], [[[118.95852, 10.3347], [118.95648, 10.33354], [118.95656, 10.33279], [118.95804, 10.33289], [118.95852, 10.3347]]], [[[119.06415, 10.42274], [119.06331, 10.42229], [119.0633, 10.42038], [119.06444, 10.41855], [119.06579, 10.41779], [119.06726, 10.41763], [119.06828, 10.41829], [119.06902, 10.4178], [119.07003, 10.4162], [119.0711, 10.41306], [119.07322, 10.41298], [119.07587, 10.41088], [119.07626, 10.4093], [119.07403, 10.40656], [119.07335, 10.40518], [119.07414, 10.40388], [119.07591, 10.40266], [119.07553, 10.40094], [119.07415, 10.39964], [119.07315, 10.39733], [119.06944, 10.39486], [119.06814, 10.39465], [119.06733, 10.39521], [119.06653, 10.3944], [119.06566, 10.39496], [119.0648, 10.39413], [119.06485, 10.39231], [119.06438, 10.39179], [119.06415, 10.38974], [119.06453, 10.38916], [119.06205, 10.38791], [119.0572, 10.38642], [119.05336, 10.38689], [119.04969, 10.38977], [119.04886, 10.39075], [119.04829, 10.39252], [119.04825, 10.39372], [119.04697, 10.39519], [119.04654, 10.39699], [119.04692, 10.3981], [119.04646, 10.39998], [119.04738, 10.40148], [119.04737, 10.40409], [119.04553, 10.4035], [119.04497, 10.40214], [119.04419, 10.40219], [119.04351, 10.40085], [119.04239, 10.40014], [119.04207, 10.39914], [119.04103, 10.39941], [119.03925, 10.39867], [119.03764, 10.39881], [119.03737, 10.39774], [119.03657, 10.39728], [119.03465, 10.39905], [119.03433, 10.40026], [119.03421, 10.40311], [119.03549, 10.40482], [119.03567, 10.40717], [119.03635, 10.40883], [119.03591, 10.41216], [119.03464, 10.4114], [119.03333, 10.41188], [119.03122, 10.41058], [119.02878, 10.4116], [119.02797, 10.4124], [119.02749, 10.41493], [119.0268, 10.4149], [119.02419, 10.4165], [119.02254, 10.4137], [119.02285, 10.41303], [119.0217, 10.40988], [119.02135, 10.40786], [119.01952, 10.40643], [119.01855, 10.40638], [119.01723, 10.40712], [119.01464, 10.40572], [119.01333, 10.40566], [119.01195, 10.404], [119.00988, 10.40407], [119.00837, 10.40711], [119.00861, 10.40834], [119.00789, 10.4086], [119.00595, 10.40744], [119.00601, 10.40613], [119.00464, 10.40483], [119.00417, 10.40303], [119.00146, 10.40255], [119.00012, 10.40414], [119.00032, 10.40513], [118.99913, 10.40633], [118.99895, 10.40765], [118.99786, 10.40829], [118.99721, 10.40962], [118.9954, 10.41081], [118.99544, 10.41314], [118.99468, 10.41319], [118.99433, 10.41188], [118.99272, 10.41033], [118.99191, 10.40914], [118.98911, 10.40829], [118.98769, 10.40726], [118.9867, 10.40712], [118.98662, 10.40552], [118.98722, 10.40424], [118.98696, 10.40356], [118.98786, 10.40266], [118.98768, 10.4005], [118.98844, 10.39924], [118.98894, 10.3969], [118.99028, 10.39476], [118.99153, 10.39412], [118.99197, 10.39286], [118.9911, 10.39076], [118.98962, 10.39041], [118.98762, 10.38909], [118.98584, 10.38887], [118.98553, 10.38825], [118.9841, 10.38824], [118.98278, 10.38718], [118.98187, 10.38577], [118.98129, 10.38691], [118.97978, 10.3853], [118.97977, 10.38304], [118.98074, 10.38186], [118.98081, 10.38106], [118.98216, 10.37919], [118.98295, 10.37867], [118.98355, 10.37686], [118.98214, 10.37468], [118.98074, 10.37525], [118.9803, 10.37365], [118.97908, 10.37379], [118.97826, 10.37299], [118.9785, 10.37182], [118.97685, 10.37058], [118.97501, 10.37022], [118.97398, 10.37128], [118.97359, 10.37261], [118.97146, 10.37143], [118.96872, 10.37261], [118.96814, 10.3718], [118.96634, 10.37067], [118.96634, 10.36844], [118.96703, 10.36785], [118.96753, 10.36628], [118.96642, 10.36519], [118.9666, 10.36376], [118.96829, 10.36348], [118.97021, 10.3616], [118.97328, 10.35905], [118.9736, 10.35815], [118.97557, 10.35607], [118.97398, 10.35343], [118.97249, 10.35375], [118.97173, 10.35336], [118.97178, 10.35206], [118.97313, 10.35118], [118.97417, 10.35153], [118.9754, 10.34938], [118.97562, 10.34586], [118.97653, 10.34599], [118.97626, 10.34783], [118.97835, 10.34911], [118.97808, 10.35035], [118.98, 10.35258], [118.98132, 10.35322], [118.98352, 10.35301], [118.98476, 10.35044], [118.98547, 10.35008], [118.98682, 10.35142], [118.9889, 10.35123], [118.99033, 10.35071], [118.99068, 10.35203], [118.99601, 10.35346], [118.99526, 10.35462], [118.99555, 10.35705], [118.99723, 10.35846], [118.998, 10.35866], [118.9995, 10.35794], [119.00167, 10.35771], [119.00176, 10.35883], [119.00095, 10.36024], [119.00193, 10.36183], [119.00176, 10.36253], [119.00283, 10.36395], [119.00374, 10.36449], [119.00362, 10.36575], [119.00439, 10.36657], [119.00451, 10.36832], [119.00532, 10.36975], [119.00687, 10.37156], [119.00761, 10.37153], [119.00826, 10.37265], [119.00913, 10.37256], [119.01052, 10.37453], [119.01255, 10.37567], [119.01529, 10.37565], [119.01655, 10.37595], [119.01723, 10.37535], [119.01864, 10.37539], [119.01894, 10.37257], [119.01877, 10.36901], [119.01852, 10.36831], [119.01617, 10.36719], [119.01555, 10.36608], [119.01639, 10.36476], [119.01662, 10.3634], [119.01834, 10.36352], [119.01931, 10.36288], [119.02042, 10.36114], [119.02026, 10.3589], [119.01902, 10.35788], [119.01812, 10.35823], [119.01736, 10.35691], [119.01587, 10.35607], [119.01497, 10.35506], [119.0153, 10.35421], [119.01686, 10.35225], [119.0181, 10.35208], [119.02017, 10.35015], [119.02008, 10.34776], [119.02204, 10.34429], [119.02318, 10.34306], [119.02442, 10.34261], [119.02682, 10.34061], [119.0252, 10.33728], [119.02253, 10.33748], [119.02173, 10.33667], [119.02085, 10.33732], [119.02005, 10.33668], [119.01799, 10.33752], [119.01643, 10.33784], [119.01551, 10.33966], [119.01322, 10.34202], [119.01194, 10.34232], [119.01186, 10.34344], [119.00999, 10.34426], [119.00725, 10.34405], [119.00503, 10.34154], [119.00392, 10.33972], [119.00405, 10.33808], [119.00561, 10.33569], [119.00547, 10.33443], [119.00435, 10.33263], [119.00312, 10.33123], [119.00114, 10.33117], [119.00074, 10.32978], [119.00156, 10.32814], [119.00072, 10.32651], [118.99894, 10.32501], [118.99657, 10.32187], [118.99889, 10.32141], [119.00014, 10.32051], [119.00114, 10.31852], [119.00208, 10.31789], [119.00145, 10.31668], [119.00109, 10.31449], [119.00029, 10.31178], [118.99915, 10.30915], [118.99735, 10.30666], [118.99565, 10.30492], [118.99259, 10.30243], [118.99094, 10.30148], [118.98826, 10.30123], [118.98782, 10.30198], [118.98662, 10.30117], [118.98487, 10.30137], [118.98262, 10.30238], [118.98182, 10.30332], [118.9759, 10.30708], [118.97455, 10.30927], [118.97352, 10.30926], [118.97151, 10.31015], [119.01544, 10.26564], [119.05529, 10.22528], [119.06135, 10.23223], [119.06621, 10.22649], [119.07599, 10.25291], [119.08444, 10.27655], [119.09318, 10.30048], [119.09871, 10.31579], [119.10021, 10.31879], [119.10757, 10.32311], [119.1208, 10.33102], [119.14617, 10.34609], [119.14103, 10.35106], [119.13759, 10.34911], [119.10684, 10.38561], [119.06415, 10.42274]]], [[[119.01565, 10.44227], [119.01359, 10.44114], [119.01313, 10.44003], [119.01319, 10.43822], [119.01287, 10.43712], [119.01342, 10.43602], [119.01173, 10.43346], [119.01176, 10.43128], [119.01321, 10.43019], [119.01374, 10.42878], [119.01468, 10.42756], [119.01454, 10.42663], [119.0154, 10.42417], [119.01572, 10.42206], [119.01698, 10.42102], [119.0192, 10.42025], [119.02041, 10.41804], [119.02192, 10.41831], [119.02208, 10.42023], [119.02285, 10.42178], [119.02306, 10.42308], [119.0239, 10.42497], [119.02538, 10.42594], [119.0277, 10.42512], [119.02783, 10.42679], [119.02631, 10.4279], [119.0262, 10.43051], [119.0274, 10.43244], [119.02648, 10.4335], [119.02621, 10.43503], [119.02428, 10.4358], [119.02351, 10.43509], [119.02041, 10.43595], [119.01915, 10.43603], [119.01774, 10.43783], [119.01759, 10.43954], [119.01664, 10.43949], [119.01565, 10.44227]]], [[[119.00032, 10.45921], [118.99866, 10.45871], [118.99653, 10.45661], [118.99547, 10.45406], [118.99525, 10.45269], [118.99721, 10.45065], [118.99791, 10.44905], [118.99799, 10.44708], [118.99712, 10.44652], [118.997, 10.44528], [118.99769, 10.44444], [118.99887, 10.44441], [118.99955, 10.44365], [119.00074, 10.44425], [119.00364, 10.44789], [119.00432, 10.44945], [119.00435, 10.45114], [119.00141, 10.45172], [119.00066, 10.4535], [119.00115, 10.45563], [119.00231, 10.45673], [119.00425, 10.45765], [119.00386, 10.45873], [119.00104, 10.45837], [119.00032, 10.45921]]]]}}, {"type": "Feature", "properties": {"name": "Kemdeng"}, "geometry": {"type": "Polygon", "coordinates": [[[119.31781, 10.45341], [119.27467, 10.50362], [119.2738, 10.5035], [119.26644, 10.50131], [119.2657, 10.5016], [119.26398, 10.50049], [119.26276, 10.50067], [119.26072, 10.49976], [119.26143, 10.49921], [119.26153, 10.49698], [119.26125, 10.49575], [119.25973, 10.49312], [119.25881, 10.492], [119.2586, 10.48986], [119.25809, 10.48805], [119.25647, 10.48502], [119.2554, 10.48359], [119.25224, 10.48121], [119.24963, 10.48016], [119.2471, 10.47976], [119.24374, 10.47977], [119.24365, 10.48028], [119.24134, 10.48241], [119.24187, 10.4848], [119.23907, 10.48541], [119.23495, 10.48559], [119.23402, 10.48598], [119.23405, 10.48706], [119.22927, 10.48628], [119.22672, 10.48607], [119.22576, 10.48674], [119.22514, 10.4881], [119.22389, 10.48613], [119.22466, 10.48541], [119.22481, 10.48386], [119.22382, 10.48229], [119.22551, 10.46144], [119.26949, 10.41616], [119.27026, 10.41648], [119.27795, 10.4175], [119.29506, 10.43292], [119.30522, 10.4418], [119.31781, 10.45341]]]}}, {"type": "Feature", "properties": {"name": "New Agutaya"}, "geometry": {"type": "Polygon", "coordinates": [[[119.36082, 10.52172], [119.3262, 10.54079], [119.29611, 10.55737], [119.29449, 10.55876], [119.29238, 10.55657], [119.2888, 10.55348], [119.28715, 10.5518], [119.28446, 10.54957], [119.2808, 10.54706], [119.27532, 10.54361], [119.27205, 10.54177], [119.26596, 10.53882], [119.26444, 10.53731], [119.26247, 10.53759], [119.25858, 10.53659], [119.25604, 10.53697], [119.25471, 10.53782], [119.25526, 10.53416], [119.25595, 10.53362], [119.26024, 10.53343], [119.26122, 10.53279], [119.26424, 10.52881], [119.26502, 10.52744], [119.26671, 10.52742], [119.26714, 10.52819], [119.27043, 10.5244], [119.27106, 10.5241], [119.27181, 10.52608], [119.27265, 10.52724], [119.27419, 10.52792], [119.27557, 10.52611], [119.27708, 10.52733], [119.27747, 10.52646], [119.2771, 10.52517], [119.27776, 10.52314], [119.33565, 10.46948], [119.33971, 10.47523], [119.36465, 10.51079], [119.36082, 10.52172]]]}}, {"type": "Feature", "properties": {"name": "New Canipo"}, "geometry": {"type": "MultiPolygon", "coordinates": [[[[119.29698, 10.69415], [119.295, 10.69327], [119.29486, 10.69185], [119.29563, 10.69162], [119.29729, 10.69237], [119.29812, 10.69225], [119.29916, 10.69329], [119.29698, 10.69415]]], [[[119.30798, 10.70403], [119.30694, 10.70393], [119.30617, 10.70256], [119.30543, 10.70239], [119.30422, 10.70078], [119.30394, 10.69867], [119.30313, 10.69608], [119.30318, 10.6918], [119.30377, 10.69013], [119.3038, 10.68848], [119.3047, 10.6883], [119.30553, 10.68927], [119.30764, 10.68869], [119.30876, 10.68977], [119.30987, 10.69026], [119.31059, 10.69283], [119.31144, 10.69406], [119.31107, 10.69565], [119.31168, 10.69766], [119.31175, 10.69976], [119.31144, 10.70021], [119.31256, 10.70297], [119.31155, 10.70349], [119.31016, 10.70213], [119.30837, 10.70232], [119.30798, 10.70403]]], [[[119.35006, 10.73772], [119.34737, 10.73618], [119.34239, 10.73621], [119.34267, 10.7358], [119.34322, 10.73096], [119.34357, 10.71823], [119.34346, 10.71517], [119.34284, 10.7102], [119.34247, 10.70865], [119.34181, 10.70383], [119.34055, 10.69718], [119.3388, 10.69582], [119.33901, 10.69517], [119.33882, 10.69134], [119.33853, 10.68961], [119.3361, 10.68701], [119.33579, 10.68524], [119.33299, 10.6783], [119.33204, 10.67487], [119.33115, 10.67368], [119.33066, 10.67091], [119.33623, 10.67185], [119.37615, 10.66937], [119.37465, 10.7173], [119.35006, 10.73772]]]]}}, {"type": "Feature", "properties": {"name": "Port Barton"}, "geometry": {"type": "MultiPolygon", "coordinates": [[[[119.1374, 10.41782], [119.13901, 10.41665], [119.13737, 10.4123], [119.13788, 10.41109], [119.13895, 10.41038], [119.13887, 10.40877], [119.13799, 10.40698], [119.13844, 10.40671], [119.14138, 10.40819], [119.14173, 10.40894], [119.14159, 10.41233], [119.14114, 10.41433], [119.14157, 10.4167], [119.13924, 10.41778], [119.13831, 10.41878], [119.1374, 10.41782]]], [[[119.15825, 10.45907], [119.15709, 10.45842], [119.15987, 10.45751], [119.16147, 10.45759], [119.16135, 10.45836], [119.1589, 10.45859], [119.15825, 10.45907]]], [[[119.15572, 10.4599], [119.15469, 10.45939], [119.15435, 10.45814], [119.15545, 10.4582], [119.15642, 10.45909], [119.15572, 10.4599]]], [[[119.16709, 10.46269], [119.16431, 10.46179], [119.16234, 10.4604], [119.16307, 10.4581], [119.16513, 10.45847], [119.16675, 10.46002], [119.16966, 10.45954], [119.17103, 10.45905], [119.17426, 10.45952], [119.1752, 10.45912], [119.17754, 10.45693], [119.18025, 10.45359], [119.18127, 10.45146], [119.18231, 10.45168], [119.18161, 10.45389], [119.18171, 10.4548], [119.1804, 10.45639], [119.17877, 10.45736], [119.17741, 10.45958], [119.17728, 10.46154], [119.17547, 10.4608], [119.17388, 10.46052], [119.17076, 10.46115], [119.16709, 10.46269]]], [[[119.14993, 10.46622], [119.14902, 10.46579], [119.14852, 10.46419], [119.14897, 10.46271], [119.15053, 10.46329], [119.14979, 10.46426], [119.15033, 10.46537], [119.14993, 10.46622]]], [[[119.16163, 10.47076], [119.16099, 10.46681], [119.16236, 10.46645], [119.16362, 10.46684], [119.1624, 10.4682], [119.1628, 10.47007], [119.16163, 10.47076]]], [[[119.15821, 10.48236], [119.15887, 10.47965], [119.16006, 10.47805], [119.16157, 10.47898], [119.16187, 10.48036], [119.15821, 10.48236]]], [[[119.22382, 10.48229], [119.22163, 10.48079], [119.21847, 10.47997], [119.21667, 10.48045], [119.21595, 10.47922], [119.21525, 10.47693], [119.2144, 10.47563], [119.2127, 10.47477], [119.21266, 10.47382], [119.21186, 10.47203], [119.21275, 10.47178], [119.21488, 10.47209], [119.21602, 10.47279], [119.21634, 10.46831], [119.21579, 10.46795], [119.21598, 10.46606], [119.21404, 10.46307], [119.21371, 10.461], [119.21283, 10.46], [119.2109, 10.45971], [119.20973, 10.46098], [119.20824, 10.46073], [119.20739, 10.45866], [119.20485, 10.45678], [119.20177, 10.45611], [119.19867, 10.45693], [119.19714, 10.45585], [119.19673, 10.45508], [119.19513, 10.45463], [119.19316, 10.45324], [119.19105, 10.45219], [119.19057, 10.45024], [119.18997, 10.44927], [119.19042, 10.44721], [119.19, 10.44535], [119.18929, 10.44396], [119.18819, 10.44339], [119.1878, 10.4418], [119.18857, 10.44077], [119.18914, 10.43832], [119.18894, 10.43568], [119.18796, 10.43328], [119.18535, 10.42975], [119.18246, 10.42748], [119.17825, 10.42772], [119.17743, 10.4272], [119.17724, 10.42568], [119.17629, 10.42251], [119.17591, 10.42005], [119.17741, 10.41914], [119.17852, 10.41755], [119.17881, 10.41583], [119.17644, 10.41171], [119.17564, 10.41087], [119.17378, 10.40979], [119.17107, 10.41007], [119.17047, 10.41129], [119.16879, 10.41221], [119.16663, 10.4124], [119.16602, 10.41315], [119.16399, 10.41312], [119.16278, 10.41103], [119.16198, 10.41069], [119.15856, 10.41059], [119.15745, 10.40926], [119.1574, 10.40818], [119.15658, 10.40644], [119.15501, 10.40557], [119.15282, 10.40559], [119.15098, 10.40333], [119.15101, 10.40214], [119.14887, 10.40198], [119.14597, 10.4003], [119.14574, 10.39963], [119.14403, 10.39883], [119.14363, 10.39967], [119.14217, 10.39976], [119.14165, 10.39914], [119.14164, 10.39661], [119.14088, 10.39574], [119.14206, 10.3944], [119.1444, 10.39392], [119.14538, 10.39521], [119.14711, 10.3925], [119.1452, 10.39167], [119.14369, 10.39015], [119.14245, 10.39066], [119.14038, 10.38915], [119.14213, 10.38593], [119.14273, 10.38305], [119.14207, 10.3822], [119.14123, 10.3827], [119.13999, 10.38235], [119.13906, 10.38139], [119.13718, 10.38225], [119.13556, 10.38217], [119.13111, 10.38327], [119.12921, 10.38393], [119.12753, 10.3827], [119.12632, 10.38384], [119.12609, 10.38683], [119.12507, 10.38806], [119.12354, 10.38787], [119.12385, 10.39001], [119.12295, 10.39243], [119.12099, 10.39317], [119.1208, 10.39516], [119.12017, 10.39526], [119.11975, 10.3987], [119.11975, 10.4003], [119.11912, 10.40125], [119.11983, 10.4028], [119.11778, 10.4052], [119.11704, 10.40488], [119.11617, 10.40602], [119.11482, 10.40693], [119.11379, 10.41025], [119.11311, 10.4118], [119.11372, 10.41244], [119.11292, 10.41401], [119.11337, 10.41578], [119.11273, 10.41699], [119.11288, 10.41829], [119.11224, 10.41887], [119.11196, 10.42094], [119.11224, 10.42184], [119.11372, 10.42271], [119.11452, 10.42469], [119.11496, 10.42708], [119.11456, 10.42811], [119.11548, 10.43003], [119.11756, 10.43143], [119.11716, 10.43329], [119.11721, 10.4361], [119.11791, 10.43856], [119.11759, 10.43974], [119.11845, 10.44193], [119.1204, 10.44252], [119.12307, 10.44293], [119.12348, 10.44458], [119.12425, 10.44555], [119.12427, 10.44646], [119.12312, 10.44782], [119.12175, 10.44743], [119.12079, 10.4458], [119.11913, 10.44512], [119.11666, 10.44557], [119.1155, 10.44686], [119.11381, 10.44626], [119.11274, 10.44769], [119.11139, 10.44773], [119.11066, 10.4488], [119.1118, 10.4495], [119.11135, 10.4512], [119.11351, 10.45362], [119.11313, 10.45741], [119.11421, 10.45916], [119.1131, 10.45969], [119.11084, 10.4596], [119.10907, 10.45913], [119.10799, 10.45837], [119.10663, 10.45807], [119.10534, 10.45888], [119.10525, 10.46045], [119.10564, 10.46347], [119.10636, 10.46407], [119.1066, 10.46546], [119.10385, 10.46571], [119.10376, 10.46781], [119.10444, 10.46953], [119.10557, 10.47001], [119.10595, 10.47157], [119.10843, 10.47198], [119.10986, 10.47194], [119.11104, 10.47111], [119.11206, 10.47228], [119.11309, 10.47412], [119.11487, 10.47396], [119.11535, 10.47304], [119.11752, 10.47347], [119.11813, 10.47283], [119.11916, 10.473], [119.12046, 10.47187], [119.12169, 10.47279], [119.12077, 10.47411], [119.12123, 10.47582], [119.12199, 10.47614], [119.12126, 10.47874], [119.11954, 10.47891], [119.11837, 10.47799], [119.11668, 10.47854], [119.11604, 10.48001], [119.11703, 10.48254], [119.1165, 10.48335], [119.11489, 10.48427], [119.11387, 10.48427], [119.11371, 10.48311], [119.11138, 10.48278], [119.11101, 10.48051], [119.10977, 10.47994], [119.10945, 10.47891], [119.10839, 10.47773], [119.10652, 10.47768], [119.10336, 10.47873], [119.10277, 10.47819], [119.10172, 10.47912], [119.1017, 10.48016], [119.10277, 10.4825], [119.10193, 10.48346], [119.10025, 10.48402], [119.09878, 10.48362], [119.09747, 10.48464], [119.09689, 10.48432], [119.09697, 10.48276], [119.09512, 10.48084], [119.09562, 10.47934], [119.09516, 10.47771], [119.09426, 10.47713], [119.09407, 10.4761], [119.09474, 10.4744], [119.09343, 10.47294], [119.09345, 10.4717], [119.09102, 10.47064], [119.08947, 10.4721], [119.0875, 10.47353], [119.08739, 10.47437], [119.08641, 10.47522], [119.08519, 10.47737], [119.0843, 10.48057], [119.0852, 10.48232], [119.08486, 10.48274], [119.08322, 10.48121], [119.08336, 10.48009], [119.0827, 10.47891], [119.08264, 10.47597], [119.08336, 10.47454], [119.08286, 10.47301], [119.08356, 10.4728], [119.08462, 10.47068], [119.08392, 10.46823], [119.08419, 10.46734], [119.08238, 10.46585], [119.08005, 10.46575], [119.07907, 10.46416], [119.07729, 10.46303], [119.07842, 10.46221], [119.07959, 10.46281], [119.08251, 10.46206], [119.08414, 10.46306], [119.08577, 10.46258], [119.08686, 10.46371], [119.08907, 10.46331], [119.08968, 10.46252], [119.08953, 10.46148], [119.08837, 10.46095], [119.08765, 10.45981], [119.0853, 10.45861], [119.08335, 10.45801], [119.0864, 10.45661], [119.08555, 10.45573], [119.08109, 10.45433], [119.07947, 10.45409], [119.0781, 10.45312], [119.07793, 10.45234], [119.07605, 10.45173], [119.07522, 10.45195], [119.07397, 10.45136], [119.07666, 10.44949], [119.07714, 10.44807], [119.07802, 10.44849], [119.07928, 10.45048], [119.08074, 10.45], [119.08265, 10.451], [119.08482, 10.45114], [119.08616, 10.45033], [119.08781, 10.45026], [119.08799, 10.45088], [119.08951, 10.45094], [119.09033, 10.452], [119.09133, 10.45185], [119.09284, 10.45096], [119.09333, 10.44999], [119.09334, 10.44812], [119.0925, 10.44718], [119.09096, 10.44751], [119.0889, 10.44561], [119.0875, 10.44523], [119.08632, 10.44299], [119.08932, 10.44258], [119.0908, 10.44099], [119.09222, 10.44269], [119.09381, 10.44272], [119.09459, 10.44161], [119.09424, 10.44057], [119.0951, 10.44019], [119.09607, 10.44129], [119.09736, 10.44094], [119.09949, 10.43928], [119.10037, 10.43687], [119.10207, 10.43764], [119.10314, 10.43703], [119.10381, 10.43577], [119.10493, 10.43495], [119.10471, 10.43306], [119.10379, 10.43231], [119.10282, 10.4323], [119.10126, 10.43069], [119.09984, 10.42991], [119.0993, 10.42909], [119.09732, 10.42769], [119.09687, 10.42663], [119.09775, 10.42529], [119.09791, 10.42404], [119.09662, 10.42059], [119.09541, 10.41946], [119.09318, 10.41938], [119.09296, 10.41842], [119.09191, 10.418], [119.08953, 10.41837], [119.08744, 10.42052], [119.08665, 10.42172], [119.08485, 10.42193], [119.08406, 10.41944], [119.08278, 10.41846], [119.08226, 10.41683], [119.0798, 10.41655], [119.07835, 10.41706], [119.07768, 10.42002], [119.07552, 10.41935], [119.07406, 10.41951], [119.07325, 10.42091], [119.0725, 10.42119], [119.07099, 10.42009], [119.06927, 10.41965], [119.06706, 10.42145], [119.06573, 10.42307], [119.06415, 10.42274], [119.10684, 10.38561], [119.13759, 10.34911], [119.14103, 10.35106], [119.14617, 10.34609], [119.17812, 10.36994], [119.18522, 10.37582], [119.20328, 10.38449], [119.26949, 10.41616], [119.22551, 10.46144], [119.22382, 10.48229]]], [[[119.15217, 10.4917], [119.15172, 10.49098], [119.15215, 10.48814], [119.15344, 10.48867], [119.15368, 10.49029], [119.15217, 10.4917]]], [[[119.13306, 10.50925], [119.13114, 10.50824], [119.13108, 10.50755], [119.1325, 10.5071], [119.1334, 10.50454], [119.13319, 10.50335], [119.13227, 10.50263], [119.13152, 10.50072], [119.13058, 10.49953], [119.13141, 10.49586], [119.13266, 10.49366], [119.13342, 10.49592], [119.13488, 10.49814], [119.13516, 10.49914], [119.1365, 10.49995], [119.1376, 10.50007], [119.1388, 10.49901], [119.14047, 10.49819], [119.14234, 10.49831], [119.14475, 10.49644], [119.1455, 10.49425], [119.14705, 10.49341], [119.1478, 10.49377], [119.14959, 10.49333], [119.15163, 10.49223], [119.15034, 10.49428], [119.15035, 10.4957], [119.14866, 10.49678], [119.14858, 10.49777], [119.14686, 10.49693], [119.14601, 10.49729], [119.14512, 10.49855], [119.14373, 10.50122], [119.14434, 10.50182], [119.14418, 10.50366], [119.14159, 10.5043], [119.14093, 10.5054], [119.13983, 10.50572], [119.13975, 10.50716], [119.13767, 10.50724], [119.13674, 10.50665], [119.13459, 10.50619], [119.13345, 10.50647], [119.13306, 10.50925]]], [[[119.06909, 10.51252], [119.06874, 10.50977], [119.06649, 10.50846], [119.06589, 10.50894], [119.06412, 10.50786], [119.06314, 10.50829], [119.06203, 10.5073], [119.05983, 10.50668], [119.05897, 10.50551], [119.05753, 10.50607], [119.05659, 10.50561], [119.0561, 10.50433], [119.05737, 10.50194], [119.05894, 10.50007], [119.05945, 10.50041], [119.06112, 10.49999], [119.06279, 10.49828], [119.06283, 10.49682], [119.06043, 10.49565], [119.05876, 10.49433], [119.05819, 10.49243], [119.05602, 10.49144], [119.05594, 10.49079], [119.05466, 10.48936], [119.0572, 10.48971], [119.05744, 10.48819], [119.05967, 10.48801], [119.06155, 10.48982], [119.06289, 10.48981], [119.06426, 10.49047], [119.06509, 10.49011], [119.06591, 10.48891], [119.06687, 10.48976], [119.06853, 10.49044], [119.07009, 10.49032], [119.07253, 10.48795], [119.07195, 10.48582], [119.07485, 10.48582], [119.07598, 10.4852], [119.07754, 10.48541], [119.07697, 10.48794], [119.0773, 10.48927], [119.07843, 10.4901], [119.07909, 10.49129], [119.07762, 10.49284], [119.07782, 10.49502], [119.07978, 10.49582], [119.07972, 10.49645], [119.0811, 10.49747], [119.0808, 10.49817], [119.0819, 10.50018], [119.08156, 10.50098], [119.08211, 10.50246], [119.08081, 10.5024], [119.07869, 10.5016], [119.0764, 10.504], [119.07672, 10.50506], [119.07788, 10.50572], [119.07813, 10.50727], [119.07707, 10.50823], [119.0781, 10.5092], [119.07814, 10.51051], [119.0765, 10.51119], [119.07568, 10.51046], [119.07466, 10.51062], [119.07376, 10.50998], [119.07247, 10.51137], [119.0711, 10.51131], [119.07024, 10.51073], [119.06909, 10.51252]]]]}}, {"type": "Feature", "properties": {"name": "Poblacion"}, "geometry": {"type": "MultiPolygon", "coordinates": [[[[119.23085, 10.53497], [119.23014, 10.53493], [119.22923, 10.53321], [119.23115, 10.53407], [119.23085, 10.53497]]], [[[119.11626, 10.54241], [119.11546, 10.54131], [119.11581, 10.53878], [119.11708, 10.53946], [119.1164, 10.54057], [119.11626, 10.54241]]], [[[119.25471, 10.53782], [119.25405, 10.53871], [119.25444, 10.53995], [119.25323, 10.54108], [119.25258, 10.54263], [119.25028, 10.54359], [119.24993, 10.54473], [119.24754, 10.54541], [119.24403, 10.5499], [119.24328, 10.55169], [119.24212, 10.55095], [119.2422, 10.54974], [119.24175, 10.54851], [119.24286, 10.54777], [119.24191, 10.54563], [119.24054, 10.54471], [119.23853, 10.54435], [119.23612, 10.54566], [119.23572, 10.54696], [119.23626, 10.54812], [119.2357, 10.54869], [119.23336, 10.54937], [119.23199, 10.54905], [119.2302, 10.54765], [119.23113, 10.54567], [119.23138, 10.54301], [119.23341, 10.54139], [119.23381, 10.53954], [119.2356, 10.53952], [119.23701, 10.53907], [119.23762, 10.53826], [119.23874, 10.53487], [119.2394, 10.53162], [119.24082, 10.53154], [119.24103, 10.53231], [119.24501, 10.53104], [119.2465, 10.53241], [119.24832, 10.53356], [119.24997, 10.53328], [119.2521, 10.53185], [119.25342, 10.52974], [119.2538, 10.52647], [119.25348, 10.5253], [119.25435, 10.52424], [119.25521, 10.52471], [119.25665, 10.52412], [119.25929, 10.52079], [119.26031, 10.52084], [119.26205, 10.51897], [119.26365, 10.51937], [119.26499, 10.5186], [119.26627, 10.51634], [119.26752, 10.51501], [119.26876, 10.51315], [119.269, 10.51161], [119.26897, 10.50925], [119.26855, 10.50708], [119.26572, 10.50469], [119.26471, 10.50337], [119.26368, 10.50356], [119.26291, 10.50221], [119.26116, 10.50198], [119.25888, 10.50072], [119.26072, 10.49976], [119.26276, 10.50067], [119.26398, 10.50049], [119.2657, 10.5016], [119.26644, 10.50131], [119.2738, 10.5035], [119.27467, 10.50362], [119.31781, 10.45341], [119.32561, 10.46045], [119.32965, 10.46386], [119.33565, 10.46948], [119.27776, 10.52314], [119.2771, 10.52517], [119.27747, 10.52646], [119.27708, 10.52733], [119.27557, 10.52611], [119.27419, 10.52792], [119.27265, 10.52724], [119.27181, 10.52608], [119.27106, 10.5241], [119.27043, 10.5244], [119.26714, 10.52819], [119.26671, 10.52742], [119.26502, 10.52744], [119.26424, 10.52881], [119.26122, 10.53279], [119.26024, 10.53343], [119.25595, 10.53362], [119.25526, 10.53416], [119.25471, 10.53782]]], [[[119.11097, 10.55417], [119.11005, 10.55432], [119.10968, 10.55238], [119.11157, 10.55135], [119.11432, 10.55226], [119.11323, 10.55385], [119.11097, 10.55417]]], [[[119.19939, 10.55594], [119.19853, 10.55514], [119.1968, 10.55461], [119.19749, 10.55381], [119.19877, 10.55081], [119.19983, 10.55055], [119.20078, 10.55186], [119.20232, 10.55239], [119.20278, 10.55357], [119.20035, 10.55484], [119.19939, 10.55594]]], [[[119.16086, 10.59276], [119.15926, 10.59247], [119.15803, 10.59142], [119.15589, 10.59144], [119.15488, 10.58954], [119.15417, 10.58918], [119.1527, 10.58971], [119.15132, 10.58701], [119.15048, 10.58632], [119.14859, 10.58607], [119.14834, 10.58539], [119.14541, 10.58473], [119.14615, 10.58317], [119.14571, 10.58259], [119.14608, 10.58124], [119.14225, 10.57944], [119.13952, 10.58042], [119.13847, 10.58133], [119.13818, 10.58227], [119.13918, 10.58405], [119.1391, 10.58591], [119.13822, 10.58679], [119.13631, 10.58632], [119.13375, 10.58387], [119.13274, 10.5816], [119.13054, 10.58213], [119.12899, 10.58154], [119.12861, 10.58278], [119.12733, 10.58334], [119.12696, 10.58499], [119.12999, 10.58929], [119.12983, 10.59002], [119.1278, 10.58983], [119.12573, 10.58912], [119.12358, 10.58788], [119.12255, 10.58793], [119.12045, 10.58553], [119.11956, 10.58512], [119.11878, 10.58334], [119.11926, 10.58192], [119.11834, 10.58042], [119.11923, 10.57678], [119.12135, 10.57683], [119.12222, 10.57607], [119.12436, 10.57673], [119.12489, 10.5773], [119.12623, 10.57721], [119.12634, 10.57637], [119.12865, 10.57551], [119.12987, 10.57538], [119.13032, 10.57429], [119.12993, 10.57329], [119.13221, 10.57186], [119.13349, 10.57255], [119.13472, 10.57266], [119.13544, 10.57151], [119.13471, 10.57042], [119.13533, 10.56919], [119.13279, 10.567], [119.13168, 10.5663], [119.12953, 10.56667], [119.12609, 10.56441], [119.12665, 10.56194], [119.12935, 10.56203], [119.13019, 10.56093], [119.12983, 10.55924], [119.12919, 10.55823], [119.12763, 10.55778], [119.12587, 10.55684], [119.12396, 10.55528], [119.12377, 10.55347], [119.12333, 10.55274], [119.12179, 10.55186], [119.1209, 10.55228], [119.11935, 10.55014], [119.12114, 10.54995], [119.1231, 10.54919], [119.1235, 10.55049], [119.1247, 10.55205], [119.12611, 10.55216], [119.12714, 10.55151], [119.12772, 10.55219], [119.12767, 10.55446], [119.1289, 10.55532], [119.13049, 10.55531], [119.13159, 10.55482], [119.13258, 10.55185], [119.13313, 10.55203], [119.13528, 10.55464], [119.13698, 10.55512], [119.1378, 10.55481], [119.13821, 10.55269], [119.13938, 10.55232], [119.1396, 10.5516], [119.14079, 10.5514], [119.13828, 10.55421], [119.13829, 10.55475], [119.13987, 10.55651], [119.14094, 10.55729], [119.14212, 10.55733], [119.14389, 10.55798], [119.14561, 10.55825], [119.14817, 10.55786], [119.14819, 10.55908], [119.15057, 10.56132], [119.15137, 10.56278], [119.15046, 10.56339], [119.14988, 10.56579], [119.15236, 10.56677], [119.15273, 10.56909], [119.15669, 10.56857], [119.16112, 10.56647], [119.16267, 10.56504], [119.16482, 10.56361], [119.16608, 10.56317], [119.16647, 10.56538], [119.16839, 10.56729], [119.17076, 10.56818], [119.17234, 10.56981], [119.17436, 10.57015], [119.17647, 10.56967], [119.17842, 10.56987], [119.17999, 10.56918], [119.18147, 10.56972], [119.18286, 10.56826], [119.18323, 10.56668], [119.18198, 10.56578], [119.1837, 10.5646], [119.18411, 10.56336], [119.18543, 10.56284], [119.18628, 10.56351], [119.18726, 10.56331], [119.1877, 10.56499], [119.1916, 10.56544], [119.19318, 10.56375], [119.19402, 10.5653], [119.19619, 10.56569], [119.19663, 10.5649], [119.19802, 10.56429], [119.19846, 10.56585], [119.19819, 10.5673], [119.19697, 10.56777], [119.19675, 10.56866], [119.19414, 10.56837], [119.19353, 10.57046], [119.19294, 10.57053], [119.19182, 10.56918], [119.1906, 10.56937], [119.18798, 10.56858], [119.18775, 10.57022], [119.18594, 10.57231], [119.18594, 10.57313], [119.18442, 10.5738], [119.18402, 10.57516], [119.18226, 10.57574], [119.18094, 10.57464], [119.17904, 10.57541], [119.17858, 10.57619], [119.17742, 10.5764], [119.17709, 10.57768], [119.17635, 10.57813], [119.17613, 10.57986], [119.17536, 10.58083], [119.1742, 10.58092], [119.17119, 10.57829], [119.1724, 10.57725], [119.17345, 10.57782], [119.17523, 10.57656], [119.17616, 10.57679], [119.17734, 10.57532], [119.17741, 10.57382], [119.17653, 10.57267], [119.17434, 10.57279], [119.17253, 10.57235], [119.16987, 10.57263], [119.16597, 10.57065], [119.16383, 10.57105], [119.16329, 10.57247], [119.16129, 10.57191], [119.15975, 10.57272], [119.15858, 10.57513], [119.15878, 10.57613], [119.16095, 10.57723], [119.16014, 10.58041], [119.15863, 10.58019], [119.15653, 10.58244], [119.15672, 10.58425], [119.15837, 10.58549], [119.15996, 10.58534], [119.16172, 10.58728], [119.16081, 10.58861], [119.16115, 10.58959], [119.16021, 10.59196], [119.16086, 10.59276]]]]}}, {"type": "Feature", "properties": {"name": "San Isidro"}, "geometry": {"type": "Polygon", "coordinates": [[[119.36082, 10.52172], [119.35388, 10.57517], [119.36373, 10.58589], [119.31784, 10.58116], [119.31063, 10.58203], [119.31072, 10.58233], [119.30935, 10.58263], [119.3087, 10.58418], [119.30795, 10.57991], [119.30805, 10.57896], [119.30586, 10.57434], [119.30347, 10.57099], [119.30016, 10.56601], [119.29712, 10.56192], [119.29449, 10.55876], [119.29611, 10.55737], [119.3262, 10.54079], [119.36082, 10.52172]]]}}, {"type": "Feature", "properties": {"name": "Santo Ni\u00f1o"}, "geometry": {"type": "Polygon", "coordinates": [[[119.37615, 10.66937], [119.33623, 10.67185], [119.33066, 10.67091], [119.33006, 10.66927], [119.32827, 10.66659], [119.32659, 10.6652], [119.32635, 10.6637], [119.32668, 10.66186], [119.32658, 10.6604], [119.32753, 10.6604], [119.32815, 10.65935], [119.32765, 10.65878], [119.328, 10.65567], [119.32958, 10.65477], [119.32923, 10.65098], [119.32788, 10.64419], [119.32679, 10.64064], [119.32703, 10.64024], [119.32526, 10.63467], [119.32131, 10.62466], [119.31995, 10.62164], [119.32044, 10.62126], [119.32721, 10.62357], [119.37765, 10.62178], [119.3773, 10.63555], [119.37615, 10.66937]]]}}]}